[ {"name": "STARLINK-34920", "line1": "1 65447U 25194P   26093.16176695  .00007246  00000+0  50566-3 0  9991", "line2": "2 65447  97.6018 308.5665 0001781  87.1338 273.0093 15.05664956 33332"}, {"name": "STARLINK-35030", "line1": "1 65448U 25194Q   26093.19221490  .00009771  00000+0  68016-3 0  9993", "line2": "2 65448  97.6026 308.5266 0001712  86.9042 273.2381 15.05665781 33331"}, {"name": "STARLINK-35009", "line1": "1 65449U 25194R   26093.15345604  .00007622  00000+0  53170-3 0  9992", "line2": "2 65449  97.6000 308.5805 0001851  71.8924 288.2505 15.05661854 33330"}, {"name": "STARLINK-34970", "line1": "1 65450U 25194S   26093.14791230  .00005264  00000+0  36879-3 0  9990", "line2": "2 65450  97.6012 308.4345 0000880  47.1597 312.9703 15.05647758 33327"}, {"name": "STARLINK-35039", "line1": "1 65451U 25194T   26093.18392471  .00008871  00000+0  61784-3 0  9999", "line2": "2 65451  97.6030 308.5374 0002620  77.3508 282.8011 15.05672856 33337"}, {"name": "STARLINK-35084", "line1": "1 65452U 25194U   26093.13129618  .00010469  00000+0  72840-3 0  9997", "line2": "2 65452  97.5978 308.4547 0002206  75.0304 285.1167 15.05661945 33322"}, {"name": "STARLINK-34988", "line1": "1 65453U 25194V   26093.14180159  .00005985  00000+0  46996-3 0  9996", "line2": "2 65453  97.6015 309.4321 0002236  51.0564 309.0859 15.01269111 33387"}, {"name": "STARLINK-35059", "line1": "1 65454U 25194W   26093.14499492  .00006360  00000+0  49906-3 0  9992", "line2": "2 65454  97.6025 308.9529 0002361  65.4522 294.6948 15.01272080 33359"}, {"name": "STARLINK-34728", "line1": "1 65455U 25194X   26093.14237062  .00009181  00000+0  63943-3 0  9997", "line2": "2 65455  97.5987 308.4398 0002074  83.5787 276.5676 15.05663195 33329"}, {"name": "STARLINK-35005", "line1": "1 65456U 25194Y   26093.15622183  .00007827  00000+0  54589-3 0  9992", "line2": "2 65456  97.6028 308.5743 0001227 108.2170 251.9190 15.05663530 33334"}, {"name": "STARLINK-35076", "line1": "1 65457U 25194Z   26093.13683494  .00009271  00000+0  64553-3 0  9990", "line2": "2 65457  97.5975 308.4472 0001610  88.2724 271.8688 15.05670682 33329"}, {"name": "STARLINK-34784", "line1": "1 65458U 25195A   26093.16269778  .00051384  00000+0  17309-2 0  9998", "line2": "2 65458  53.1563 144.2939 0001157  80.7648 279.3484 15.30277965 33741"}, {"name": "STARLINK-34867", "line1": "1 65459U 25195B   26093.31339260  .00027276  00000+0  92936-3 0  9993", "line2": "2 65459  53.1598 143.8066 0000379 108.5570 251.5472 15.30210758 33762"}, {"name": "STARLINK-34850", "line1": "1 65460U 25195C   26093.14172246  .00046157  00000+0  15593-2 0  9997", "line2": "2 65460  53.1593 144.8714 0001832  87.7997 272.3214 15.30233632 33734"}, {"name": "STARLINK-35159", "line1": "1 65461U 25195D   26093.13644509  .00046565  00000+0  15721-2 0  9999", "line2": "2 65461  53.1602 144.8412 0001943  98.9268 261.1953 15.30248959 33733"}, {"name": "STARLINK-35180", "line1": "1 65462U 25195E   26093.12694839  .00019685  00000+0  67460-3 0  9991", "line2": "2 65462  53.1589 144.7804 0001495  81.6261 278.4910 15.30219124 33732"}, {"name": "STARLINK-35111", "line1": "1 65463U 25195F   26092.56960757  .00022786  00000+0  77875-3 0  9991", "line2": "2 65463  53.1572 146.9878 0001122  92.9507 267.1622 15.30213587 33658"}, {"name": "STARLINK-35107", "line1": "1 65464U 25195G   26092.43159203  .00035463  00000+0  12041-2 0  9993", "line2": "2 65464  53.1582 147.5541 0001261  79.2223 280.8919 15.30191299 33635"}, {"name": "STARLINK-35169", "line1": "1 65465U 25195H   26093.13327924  .00033599  00000+0  11402-2 0  9997", "line2": "2 65465  53.1594 144.8202 0001660  83.2674 276.8516 15.30232899 33732"}, {"name": "STARLINK-35027", "line1": "1 65466U 25195J   26093.31972915  .00029241  00000+0  99531-3 0  9993", "line2": "2 65466  53.1624 143.8511 0001208  94.2950 265.8188 15.30206691 33763"}, {"name": "STARLINK-34816", "line1": "1 65467U 25195K   26092.55917074  .00040411  00000+0  13688-2 0  9994", "line2": "2 65467  53.1588 147.6340 0001284  83.2074 276.9073 15.30208413 33641"}, {"name": "STARLINK-35033", "line1": "1 65468U 25195L   26092.56644349  .00015399  00000+0  53086-3 0  9992", "line2": "2 65468  53.1576 146.9667 0001205  81.7659 278.3478 15.30206289 33653"}, {"name": "STARLINK-34924", "line1": "1 65469U 25195M   26093.14066599  .00037426  00000+0  12679-2 0  9990", "line2": "2 65469  53.1598 144.8653 0001656  94.6734 265.4456 15.30236462 33735"}, {"name": "STARLINK-34829", "line1": "1 65470U 25195N   26093.16587909  .00046386  00000+0  15667-2 0  9992", "line2": "2 65470  53.1563 144.3087 0001428  89.1630 270.9534 15.30237999 33741"}, {"name": "STARLINK-34888", "line1": "1 65471U 25195P   26093.31761918 -.00003058  00000+0 -91170-4 0  9990", "line2": "2 65471  53.1592 143.8329 0001732  72.5437 287.5753 15.30194553 33763"}, {"name": "STARLINK-34799", "line1": "1 65472U 25195Q   26093.14383298  .00052023  00000+0  17544-2 0  9998", "line2": "2 65472  53.1593 144.8865 0001192  70.3398 289.7731 15.30235040 33715"}, {"name": "STARLINK-34762", "line1": "1 65473U 25195R   26093.31656075  .00043825  00000+0  14818-2 0  9995", "line2": "2 65473  53.1588 143.8276 0001299  96.3814 263.7334 15.30227395 33742"}, {"name": "STARLINK-34998", "line1": "1 65474U 25195S   26093.30389594  .00022321  00000+0  76316-3 0  9994", "line2": "2 65474  53.1571 143.7422 0000752  66.0119 294.0960 15.30213273 33744"}, {"name": "STARLINK-34832", "line1": "1 65475U 25195T   26093.13011343  .00042119  00000+0  14242-2 0  9996", "line2": "2 65475  53.1593 144.7993 0002128  80.1264 279.9977 15.30243653 33712"}, {"name": "STARLINK-35098", "line1": "1 65476U 25195U   26092.56011177  .00029486  00000+0  10037-2 0  9998", "line2": "2 65476  53.1582 146.9274 0001291  83.3971 276.7176 15.30201795 33635"}, {"name": "STARLINK-35071", "line1": "1 65477U 25195V   26092.87307807  .00038475  00000+0  13033-2 0  9998", "line2": "2 65477  53.1584 146.0344 0001203  85.2317 274.8821 15.30228064 33673"}, {"name": "STARLINK-35093", "line1": "1 65478U 25195W   26093.17115178  .00026697  00000+0  90906-3 0  9999", "line2": "2 65478  53.1576 144.3370 0001361  97.4413 262.6742 15.30242494 33728"}, {"name": "STARLINK-35096", "line1": "1 65479U 25195X   26093.15638050  .00035709  00000+0  12107-2 0  9997", "line2": "2 65479  53.1555 144.2434 0001052  64.5343 295.5766 15.30236145 33727"}, {"name": "STARLINK-35040", "line1": "1 65480U 25195Y   26093.31549944  .00015450  00000+0  53261-3 0  9998", "line2": "2 65480  53.1589 143.7931 0000964  73.3431 286.7676 15.30203116 33745"}, {"name": "STARLINK-35042", "line1": "1 65481U 25195Z   26093.13855408  .00046419  00000+0  15673-2 0  9997", "line2": "2 65481  53.1592 144.8461 0002040  91.4720 268.6515 15.30247784 33716"}, {"name": "STARLINK-35038", "line1": "1 65482U 25195AA  26092.54122647  .00023768  00000+0  81164-3 0  9995", "line2": "2 65482  53.1599 147.4958 0001164  76.1661 283.9470 15.30216109 33621"}, {"name": "STARLINK-35037", "line1": "1 65483U 25195AB  26093.30600099  .00026998  00000+0  91937-3 0  9990", "line2": "2 65483  53.1576 143.7345 0001676  86.8745 273.2448 15.30234584 33742"}, {"name": "STARLINK-35089", "line1": "1 65484U 25195AC  26093.14593896  .00045812  00000+0  15473-2 0  9995", "line2": "2 65484  53.1599 144.8711 0001273  75.8603 284.2539 15.30242958 33715"}, {"name": "STARLINK-35143", "line1": "1 65485U 25195AD  26093.15320717  .00041376  00000+0  13995-2 0  9995", "line2": "2 65485  53.1571 144.2048 0001239  83.3868 276.7274 15.30242777 33724"}, {"name": "STARLINK-35226", "line1": "1 65492U 25198A   26093.17906034  .00037311  00000+0  12642-2 0  9992", "line2": "2 65492  53.1576 156.9528 0001642  85.1453 274.9736 15.30233992 32370"}, {"name": "STARLINK-35242", "line1": "1 65493U 25198B   26093.31074785 -.00000470  00000+0 -37421-5 0  9991", "line2": "2 65493  53.1595 156.3567 0002215 350.7700   9.3260 15.30180241 32394"}, {"name": "STARLINK-35223", "line1": "1 65494U 25198C   26093.20965987  .00029994  00000+0  10197-2 0  9991", "line2": "2 65494  53.1581 157.1437 0001209  98.4423 261.6715 15.30234072 32373"}, {"name": "STARLINK-34446", "line1": "1 65495U 25198D   26092.89470273  .00031409  00000+0  10673-2 0  9998", "line2": "2 65495  53.1606 158.7338 0001544  92.3310 267.7868 15.30226259 32328"}, {"name": "STARLINK-35212", "line1": "1 65496U 25198E   26092.88942479  .00036450  00000+0  12361-2 0  9997", "line2": "2 65496  53.1595 158.6973 0001331  84.3136 275.8017 15.30217783 32329"}, {"name": "STARLINK-34455", "line1": "1 65497U 25198F   26093.19805644  .00044675  00000+0  15101-2 0  9998", "line2": "2 65497  53.1558 157.0737 0001393  96.8754 263.2405 15.30229319 32377"}, {"name": "STARLINK-35203", "line1": "1 65498U 25198G   26093.16864879  .00034733  00000+0  11801-2 0  9998", "line2": "2 65498  53.1586 157.6016 0002092  79.3380 280.7857 15.30178916 32363"}, {"name": "STARLINK-35166", "line1": "1 65499U 25198H   26093.16966522  .00039235  00000+0  13275-2 0  9996", "line2": "2 65499  53.1590 157.6041 0001387  87.3619 272.7540 15.30256237 32360"}, {"name": "STARLINK-35207", "line1": "1 65500U 25198J   26092.89153400  .00029207  00000+0  99359-3 0  9997", "line2": "2 65500  53.1603 158.7108 0001388  82.3880 277.7278 15.30225492 32328"}, {"name": "STARLINK-35140", "line1": "1 65501U 25198K   26093.31918334  .00002340  00000+0  91200-4 0  9998", "line2": "2 65501  53.1582 156.4052 0000950  54.7226 305.3864 15.30162154 32390"}, {"name": "STARLINK-35114", "line1": "1 65502U 25198L   26093.32340717 -.00013269  00000+0 -43696-3 0  9993", "line2": "2 65502  53.1573 156.4345 0001246  48.7933 311.3175 15.30178876 32393"}, {"name": "STARLINK-35126", "line1": "1 65503U 25198M   26092.88835980  .00043848  00000+0  14814-2 0  9998", "line2": "2 65503  53.1589 158.6916 0001348  96.6445 263.4710 15.30254165 32323"}, {"name": "STARLINK-35182", "line1": "1 65504U 25198N   26093.16334277  .00039394  00000+0  13334-2 0  9991", "line2": "2 65504  53.1585 157.5616 0001744  91.1220 268.9980 15.30241626 32367"}]